{
  "type": "FeatureCollection",
  "features": [
    {
      "type": "Feature",
      "properties": {
        "norad_id": 34301,
        "name": "COSMOS 2251 DEB",
        "group": "cosmos-2251-debris",
        "lat": -20.65013518107148,
        "lon": 138.21535508710815,
        "alt_km": 622.9837846265409,
        "timestamp": "2025-12-23T22:42:33.379701+00:00",
        "meta_object_name": "COSMOS 2251 DEB",
        "meta_object_id": "1993-036MX",
        "meta_epoch": "2025-12-22T19:53:22.425792",
        "meta_mean_motion": 14.85014101,
        "meta_eccentricity": 0.00102276,
        "meta_inclination": 74.0055,
        "meta_ra_of_asc_node": 146.643,
        "meta_arg_of_pericenter": 209.688,
        "meta_mean_anomaly": 277.0489,
        "meta_ephemeris_type": 0,
        "meta_classification_type": "U",
        "meta_norad_cat_id": 34301,
        "meta_element_set_no": 999,
        "meta_rev_at_epoch": 88550,
        "meta_bstar": 0.0032611142,
        "meta_mean_motion_dot": 0.00027935,
        "meta_mean_motion_ddot": 0,
        "tle_line1": "1 34301U 93036MX  25356.82873178  .00027935  00000+0  32611-2 0  9997",
        "tle_line2": "2 34301  74.0055 146.6430 0010227 209.6880 277.0489 14.85014101885501"
      },
      "geometry": {
        "type": "Point",
        "coordinates": [
          138.21535508710815,
          -20.65013518107148
        ]
      }
    },
    {
      "type": "Feature",
      "properties": {
        "norad_id": 34302,
        "name": "COSMOS 2251 DEB",
        "group": "cosmos-2251-debris",
        "lat": 33.93701635988747,
        "lon": 114.07432059108363,
        "alt_km": 748.1511159489801,
        "timestamp": "2025-12-23T22:42:33.379712+00:00",
        "meta_object_name": "COSMOS 2251 DEB",
        "meta_object_id": "1993-036MY",
        "meta_epoch": "2025-12-23T02:49:12.158976",
        "meta_mean_motion": 14.39368344,
        "meta_eccentricity": 0.00793714,
        "meta_inclination": 74.1781,
        "meta_ra_of_asc_node": 104.5899,
        "meta_arg_of_pericenter": 316.9355,
        "meta_mean_anomaly": 105.2859,
        "meta_ephemeris_type": 0,
        "meta_classification_type": "U",
        "meta_norad_cat_id": 34302,
        "meta_element_set_no": 999,
        "meta_rev_at_epoch": 87870,
        "meta_bstar": 0.00056774212,
        "meta_mean_motion_dot": 1.805e-05,
        "meta_mean_motion_ddot": 0,
        "tle_line1": "1 34302U 93036MY  25357.11750184  .00001805  00000+0  56774-3 0  9997",
        "tle_line2": "2 34302  74.1781 104.5899 0079371 316.9355 105.2859 14.39368344878702"
      },
      "geometry": {
        "type": "Point",
        "coordinates": [
          114.07432059108363,
          33.93701635988747
        ]
      }
    },
    {
      "type": "Feature",
      "properties": {
        "norad_id": 34303,
        "name": "COSMOS 2251 DEB",
        "group": "cosmos-2251-debris",
        "lat": 64.46260415607985,
        "lon": 49.902533137169435,
        "alt_km": 666.5648684607504,
        "timestamp": "2025-12-23T22:42:33.379722+00:00",
        "meta_object_name": "COSMOS 2251 DEB",
        "meta_object_id": "1993-036MZ",
        "meta_epoch": "2025-12-23T04:44:10.945824",
        "meta_mean_motion": 14.54584938,
        "meta_eccentricity": 0.01355692,
        "meta_inclination": 74.0053,
        "meta_ra_of_asc_node": 268.2168,
        "meta_arg_of_pericenter": 43.9597,
        "meta_mean_anomaly": 104.8589,
        "meta_ephemeris_type": 0,
        "meta_classification_type": "U",
        "meta_norad_cat_id": 34303,
        "meta_element_set_no": 999,
        "meta_rev_at_epoch": 88114,
        "meta_bstar": 0.0015621447,
        "meta_mean_motion_dot": 7.518e-05,
        "meta_mean_motion_ddot": 0,
        "tle_line1": "1 34303U 93036MZ  25357.19734891  .00007518  00000+0  15621-2 0  9995",
        "tle_line2": "2 34303  74.0053 268.2168 0135569  43.9597 104.8589 14.54584938881141"
      },
      "geometry": {
        "type": "Point",
        "coordinates": [
          49.902533137169435,
          64.46260415607985
        ]
      }
    },
    {
      "type": "Feature",
      "properties": {
        "norad_id": 34304,
        "name": "COSMOS 2251 DEB",
        "group": "cosmos-2251-debris",
        "lat": -73.94601025066808,
        "lon": 16.91491105811204,
        "alt_km": 695.4399696019882,
        "timestamp": "2025-12-23T22:42:33.379733+00:00",
        "meta_object_name": "COSMOS 2251 DEB",
        "meta_object_id": "1993-036NA",
        "meta_epoch": "2025-12-22T08:59:04.776576",
        "meta_mean_motion": 14.37946725,
        "meta_eccentricity": 0.01289912,
        "meta_inclination": 74.0136,
        "meta_ra_of_asc_node": 104.822,
        "meta_arg_of_pericenter": 240.6519,
        "meta_mean_anomaly": 176.2387,
        "meta_ephemeris_type": 0,
        "meta_classification_type": "U",
        "meta_norad_cat_id": 34304,
        "meta_element_set_no": 999,
        "meta_rev_at_epoch": 87435,
        "meta_bstar": 0.0016184217,
        "meta_mean_motion_dot": 5.36e-05,
        "meta_mean_motion_ddot": 0,
        "tle_line1": "1 34304U 93036NA  25356.37436084  .00005360  00000+0  16184-2 0  9996",
        "tle_line2": "2 34304  74.0136 104.8220 0128991 240.6519 176.2387 14.37946725874350"
      },
      "geometry": {
        "type": "Point",
        "coordinates": [
          16.91491105811204,
          -73.94601025066808
        ]
      }
    },
    {
      "type": "Feature",
      "properties": {
        "norad_id": 34307,
        "name": "COSMOS 2251 DEB",
        "group": "cosmos-2251-debris",
        "lat": -15.851314444635586,
        "lon": -69.5216247138512,
        "alt_km": 1279.0279110652818,
        "timestamp": "2025-12-23T22:42:33.379743+00:00",
        "meta_object_name": "COSMOS 2251 DEB",
        "meta_object_id": "1993-036ND",
        "meta_epoch": "2025-12-22T06:44:04.477632",
        "meta_mean_motion": 13.54335619,
        "meta_eccentricity": 0.03918372,
        "meta_inclination": 74.054,
        "meta_ra_of_asc_node": 297.8063,
        "meta_arg_of_pericenter": 126.6405,
        "meta_mean_anomaly": 22.0681,
        "meta_ephemeris_type": 0,
        "meta_classification_type": "U",
        "meta_norad_cat_id": 34307,
        "meta_element_set_no": 999,
        "meta_rev_at_epoch": 82991,
        "meta_bstar": 0.00070815067,
        "meta_mean_motion_dot": 7.69e-06,
        "meta_mean_motion_ddot": 0,
        "tle_line1": "1 34307U 93036ND  25356.28060738  .00000769  00000+0  70815-3 0  9998",
        "tle_line2": "2 34307  74.0540 297.8063 0391837 126.6405  22.0681 13.54335619829917"
      },
      "geometry": {
        "type": "Point",
        "coordinates": [
          -69.5216247138512,
          -15.851314444635586
        ]
      }
    },
    {
      "type": "Feature",
      "properties": {
        "norad_id": 34313,
        "name": "COSMOS 2251 DEB",
        "group": "cosmos-2251-debris",
        "lat": -25.995286697305186,
        "lon": -86.1483618098139,
        "alt_km": 508.1694171245181,
        "timestamp": "2025-12-23T22:42:33.379754+00:00",
        "meta_object_name": "COSMOS 2251 DEB",
        "meta_object_id": "1993-036NK",
        "meta_epoch": "2025-12-23T03:53:02.798880",
        "meta_mean_motion": 15.20841146,
        "meta_eccentricity": 0.00123525,
        "meta_inclination": 73.9714,
        "meta_ra_of_asc_node": 283.5625,
        "meta_arg_of_pericenter": 64.6608,
        "meta_mean_anomaly": 295.5867,
        "meta_ephemeris_type": 0,
        "meta_classification_type": "U",
        "meta_norad_cat_id": 34313,
        "meta_element_set_no": 999,
        "meta_rev_at_epoch": 89223,
        "meta_bstar": 0.0044107554,
        "meta_mean_motion_dot": 0.00098877,
        "meta_mean_motion_ddot": 0,
        "tle_line1": "1 34313U 93036NK  25357.16183795  .00098877  00000+0  44108-2 0  9994",
        "tle_line2": "2 34313  73.9714 283.5625 0012352  64.6608 295.5867 15.20841146892239"
      },
      "geometry": {
        "type": "Point",
        "coordinates": [
          -86.1483618098139,
          -25.995286697305186
        ]
      }
    },
    {
      "type": "Feature",
      "properties": {
        "norad_id": 34314,
        "name": "COSMOS 2251 DEB",
        "group": "cosmos-2251-debris",
        "lat": -0.0526288828198765,
        "lon": 108.40023999341153,
        "alt_km": 899.9811995297159,
        "timestamp": "2025-12-23T22:42:33.379764+00:00",
        "meta_object_name": "COSMOS 2251 DEB",
        "meta_object_id": "1993-036NL",
        "meta_epoch": "2025-12-23T05:30:17.917920",
        "meta_mean_motion": 14.1744895,
        "meta_eccentricity": 0.01034057,
        "meta_inclination": 74.0062,
        "meta_ra_of_asc_node": 289.6639,
        "meta_arg_of_pericenter": 32.8604,
        "meta_mean_anomaly": 89.9665,
        "meta_ephemeris_type": 0,
        "meta_classification_type": "U",
        "meta_norad_cat_id": 34314,
        "meta_element_set_no": 999,
        "meta_rev_at_epoch": 86806,
        "meta_bstar": 0.00063643589,
        "meta_mean_motion_dot": 1.335e-05,
        "meta_mean_motion_ddot": 0,
        "tle_line1": "1 34314U 93036NL  25357.22937405  .00001335  00000+0  63644-3 0  9997",
        "tle_line2": "2 34314  74.0062 289.6639 0103405  32.8604  89.9665 14.17448950868069"
      },
      "geometry": {
        "type": "Point",
        "coordinates": [
          108.40023999341153,
          -0.0526288828198765
        ]
      }
    }
  ]
}